STARLINK-11388 [DTC]    
1 62092U 24220E   25144.58564964  .00254059  00000+0  19189-2 0  9996
2 62092  42.9991 345.7842 0001936 258.7008 101.3643 15.70897290 29486
STARLINK-11345 [DTC]    
1 62093U 24220F   25144.58033751  .00090638  00000+0  70030-3 0  9996
2 62093  42.9982 345.7423 0002165 270.0205  90.0414 15.70902709 29485
STARLINK-11381 [DTC]    
1 62094U 24220G   25144.25711559  .00233103  00000+0  17648-2 0  9991
2 62094  42.9986 347.6158 0002442 283.7729  76.2867 15.70904537 29430
STARLINK-11369 [DTC]    
1 62095U 24220H   25144.56972267  .00329990  00000+0  24563-2 0  9995
2 62095  42.9985 345.6565 0002502 261.9714  98.0870 15.71015240 29586
STARLINK-11303 [DTC]    
1 62096U 24220J   25144.62800093  .00145896  00000+0  11226-2 0  9993
2 62096  42.9997 345.2309 0004957 296.1308  63.9049 15.70787107 29594
STARLINK-11367 [DTC]    
1 62097U 24220K   25143.98685641  .00324113  00000+0  24332-2 0  9995
2 62097  42.9987 349.0209 0001502 277.1846  82.8850 15.70829699 29496
STARLINK-11386 [DTC]    
1 62098U 24220L   25144.55379312  .00329794  00000+0  24525-2 0  9999
2 62098  42.9986 345.5281 0002668 255.2897 104.7675 15.71038417 29483
STARLINK-11380 [DTC]    
1 62099U 24220M   25143.84906709  .00213199  00000+0  16160-2 0  9994
2 62099  42.9982 349.7002 0003139 264.0640  95.9870 15.70936729 29373
STARLINK-33566          
1 62100U 24220N   25144.38668026  .00028921  00000+0  69671-3 0  9997
2 62100  43.0003  27.4454 0001543 274.5051  85.5629 15.40711836 29084
STARLINK-33545          
1 62101U 24220P   25144.41695947  .00020044  00000+0  73546-3 0  9998
2 62101  43.0062  38.9488 0001057 290.2286  69.8452 15.27600397 28788
STARLINK-33562          
1 62102U 24220Q   25144.42850826  .00024916  00000+0  91095-3 0  9990
2 62102  43.0042  39.0319 0005774 262.4803  97.5393 15.27601748 28781
STARLINK-33554          
1 62103U 24220R   25144.41310561  .00024317  00000+0  88978-3 0  9998
2 62103  43.0039  38.9212 0001038 287.5987  72.4752 15.27597799 28712
STARLINK-33555          
1 62104U 24220S   25143.98879848  .00024122  00000+0  88244-3 0  9998
2 62104  43.0014  41.7494 0001371 252.5539 107.5163 15.27609534 28857
STARLINK-33557          
1 62106U 24220U   25144.58144526  .00004736  86654-5  87319-5 0  9993
2 62106  42.9707 339.0899 0002607 221.9697 138.0985 16.07763398 29474
STARLINK-33559          
1 62107U 24220V   25144.11572842  .00023606  00000+0  86396-3 0  9993
2 62107  43.0023  40.9863 0001437 273.8129  86.2558 15.27604996 28909
STARLINK-33553          
1 62108U 24220W   25144.43494937  .00019459  00000+0  71436-3 0  9997
2 62108  43.0039  39.0805 0001997 263.4162  96.6463 15.27599272 28950
STARLINK-33556          
1 62109U 24220X   25144.42082425  .00027029  00000+0  98774-3 0  9998
2 62109  43.0030  38.9751 0001050  57.2068 302.8885 15.27593658 28978
STARLINK-33551          
1 62110U 24220Y   25144.11187061  .00023341  00000+0  85430-3 0  9996
2 62110  43.0008  40.9594 0001898 261.8730  98.1906 15.27608221 28907
STARLINK-32311          
1 62114U 24222A   25144.51704671  .00038360  00000+0  91984-3 0  9996
2 62114  42.9971 318.9099 0000901 274.5464  85.5290 15.40736474 28807
STARLINK-32470          
1 62115U 24222B   25144.50246563  .00020525  00000+0  75347-3 0  9996
2 62115  43.0004 329.1823 0001865 260.7570  99.3071 15.27572449 28671
STARLINK-32502          
1 62116U 24222C   25144.52431173  .00014752  00000+0  54422-3 0  9998
2 62116  42.9987 329.3432 0001222 272.6803  87.3909 15.27599244 28585
STARLINK-32521          
1 62117U 24222D   25144.51063887  .00017078  00000+0  62847-3 0  9995
2 62117  42.9975 325.6677 0001543 279.7814  80.2863 15.27590919 28568
STARLINK-32549          
1 62118U 24222E   25144.55371752  .00021124  00000+0  77466-3 0  9993
2 62118  43.0000 328.7064 0000784 219.9672 140.1122 15.27592052 28595
STARLINK-32535          
1 62119U 24222F   25144.53250388  .00020133  00000+0  73891-3 0  9990
2 62119  43.0012 325.9513 0000809 255.5618 104.5144 15.27589873 28574
STARLINK-32548          
1 62120U 24222G   25144.53844658  .00015833  00000+0  58352-3 0  9997
2 62120  43.0028 329.4574 0000495 233.3401 126.7405 15.27587002 28538
STARLINK-32525          
1 62121U 24222H   25144.49475872  .00018018  00000+0  66235-3 0  9998
2 62121  42.9971 329.1246 0001505 326.5164  33.5593 15.27596442 28532
STARLINK-32628          
1 62122U 24222J   25144.57813405  .00019479  00000+0  71515-3 0  9995
2 62122  43.0013 328.8887 0001203 277.7679  82.3036 15.27595854 28701
STARLINK-32626          
1 62123U 24222K   25144.53202450  .00020276  00000+0  74389-3 0  9993
2 62123  42.9963 329.4060 0000393 318.9486  41.1336 15.27598246 28521
STARLINK-32608          
1 62124U 24222L   25144.57170681  .00017562  00000+0  64603-3 0  9990
2 62124  43.0017 328.8409 0004333 295.7143  64.3261 15.27582372 28521
STARLINK-32488          
1 62125U 24222M   25144.21536652  .00015602  00000+0  57503-3 0  9990
2 62125  42.9982 331.3234 0001772 279.6045  80.4606 15.27594218 28379
STARLINK-32490          
1 62126U 24222N   25144.55630037  .00021753  00000+0  79806-3 0  9994
2 62126  42.9992 328.7234 0000520 202.1920 157.8909 15.27564009 28532
STARLINK-32557          
1 62127U 24222P   25144.51031596  .00017962  00000+0  66021-3 0  9998
2 62127  42.9951 318.7090 0000150 309.3291  50.7547 15.27601643 28699
STARLINK-32568          
1 62128U 24222Q   25144.59354820  .00008414  00000+0  31471-3 0  9998
2 62128  43.0018 329.0021 0001042 258.7984 101.2750 15.27601521 28279
STARLINK-32462          
1 62129U 24222R   25144.52608241  .00028251  00000+0  10317-2 0  9997
2 62129  42.9936 325.9006 0000801  52.9243 307.1682 15.27596489 28568
STARLINK-32463          
1 62130U 24222S   25144.56399649  .00011349  00000+0  42116-3 0  9995
2 62130  43.0026 328.7790 0001248 251.9459 108.1256 15.27589741 28535
STARLINK-32550          
1 62131U 24222T   25144.53459070  .00024318  00000+0  88980-3 0  9997
2 62131  42.9943 329.4242 0000458  15.0350 345.0515 15.27599018 28575
STARLINK-32507          
1 62132U 24222U   25144.54986085  .00026456  00000+0  96694-3 0  9996
2 62132  42.9993 328.6713 0000413 293.9129  66.1679 15.27597866 28387
STARLINK-32245          
1 62133U 24222V   25144.52045668  .00027064  00000+0  98907-3 0  9993
2 62133  42.9999 329.3118 0000934 272.4064  87.6680 15.27590721 28685
STARLINK-32546          
1 62134U 24222W   25144.52993489  .00018245  00000+0  67059-3 0  9992
2 62134  42.9997 325.9287 0001208 268.6790  91.3923 15.27594772 28458
STARLINK-32545          
1 62135U 24222X   25144.54615431  .00003439  00000+0  13443-3 0  9990
2 62135  43.0000 329.5012 0001331 282.2663  77.8039 15.27582089 28578
STARLINK-32554          
1 62136U 24222Y   25143.85631041  .00019405  00000+0  71240-3 0  9998
2 62136  43.0014 332.9264 0001540 258.9184 101.1495 15.27599829 28477
STARLINK-32570          
1 62137U 24222Z   25144.51659717  .00024623  00000+0  90083-3 0  9997
2 62137  42.9968 329.2806 0002190 267.2490  92.8111 15.27596326 28672
STARLINK-32529          
1 62139U 24224A   25144.26393701  .00013733  00000+0  50753-3 0  9991
2 62139  42.9988 352.8663 0000609 288.6436  71.4349 15.27587615 28159
STARLINK-32464          
1 62140U 24224B   25144.27163620  .00007856  00000+0  29471-3 0  9991
2 62140  42.9976 352.8951 0002172 287.4617  72.5997 15.27579597 28154
STARLINK-32482          
1 62141U 24224C   25144.49283130 -.00044210  00000+0 -13939-2 0  9993
2 62141  42.9978 351.1154 0004857 251.3375 108.6951 15.32144147 28096
STARLINK-32454          
1 62142U 24224D   25144.29379540  .00015698  00000+0  57840-3 0  9999
2 62142  42.9977 359.9871 0001576 282.2990  77.7685 15.27600142 28130
STARLINK-32485          
1 62143U 24224E   25144.61849788  .00028720  00000+0  10485-2 0  9995
2 62143  42.9959 353.8033 0000702 257.3532 102.7242 15.27599959 27803
STARLINK-32388          
1 62144U 24224F   25143.96301100  .00035379  00000+0  12879-2 0  9991
2 62144  43.0001   1.8050 0001282 269.3673  90.7032 15.27608532 28088
STARLINK-32374          
1 62145U 24224G   25144.58186595  .00016752  00000+0  61670-3 0  9998
2 62145  42.9991 350.9259 0001194 255.6115 104.4604 15.27590783 28261
STARLINK-32384          
1 62146U 24224H   25144.58315119  .00015767  00000+0  58108-3 0  9992
2 62146  42.9998 350.9382 0000777 178.1262 181.9593 15.27590135 28262
STARLINK-32295          
1 62147U 24224J   25144.59343020  .00024534  00000+0  89782-3 0  9990
2 62147  42.9989 351.0136 0000355 173.7180 186.3676 15.27589858 28153
STARLINK-32479          
1 62148U 24224K   25142.68036368 -.00202820  00000+0 -63463-2 0  9998
2 62148  42.9998   1.5951 0001420 310.5423  49.5307 15.33220902 27914
STARLINK-32468          
1 62149U 24224L   25144.57158553  .00018380  00000+0  67545-3 0  9990
2 62149  42.9994 350.8529 0001445 300.5292  59.5416 15.27595463 28106
STARLINK-32629          
1 62150U 24224M   25143.64542057 -.00205638  00000+0 -63644-2 0  9996
2 62150  42.9999 355.9388 0001778 314.0012  46.0695 15.33577227 28128
STARLINK-32644          
1 62151U 24224N   25144.59214400  .00015938  00000+0  58695-3 0  9991
2 62151  42.9951 351.0022 0000551  51.0704 309.0197 15.27606785 28262
STARLINK-32623          
1 62152U 24224P   25144.30185235  .00018233  00000+0  67028-3 0  9995
2 62152  42.9978 355.7258 0000258  36.9967 323.0902 15.27588122 28120
STARLINK-32639          
1 62153U 24224Q   25144.26264150  .00020532  00000+0  75314-3 0  9997
2 62153  43.0001 352.8284 0001125 273.7128  86.3595 15.27598627 28051
STARLINK-32625          
1 62154U 24224R   25144.27035321  .00026210  00000+0  95842-3 0  9992
2 62154  43.0011 352.8831 0001450 301.1365  58.9344 15.27586039 28108
STARLINK-32635          
1 62155U 24224S   25144.29764920  .00016295  00000+0  59994-3 0  9999
2 62155  43.0019   0.0102 0001693 284.8874  75.1790 15.27602861 27973
